[{"OBJECT_NAME":"DIWATA-2B","OBJECT_ID":"2018-084H","EPOCH":"2026-03-09T23:44:16.821312","MEAN_MOTION":14.99967379,"ECCENTRICITY":0.00117782,"INCLINATION":98.1039,"RA_OF_ASC_NODE":261.0381,"ARG_OF_PERICENTER":125.8755,"MEAN_ANOMALY":234.3563,"EPHEMERIS_TYPE":0,"CLASSIFICATION_TYPE":"U","NORAD_CAT_ID":43678,"ELEMENT_SET_NO":999,"REV_AT_EPOCH":40134,"BSTAR":0.00041230334,"MEAN_MOTION_DOT":5.066e-5,"MEAN_MOTION_DDOT":0},{"OBJECT_NAME":"STARLINK-5837","OBJECT_ID":"2023-058AF","EPOCH":"2026-03-09T21:42:54.065088","MEAN_MOTION":15.01259857,"ECCENTRICITY":0.0002939,"INCLINATION":97.6034,"RA_OF_ASC_NODE":70.4232,"ARG_OF_PERICENTER":180.7925,"MEAN_ANOMALY":179.3295,"EPHEMERIS_TYPE":0,"CLASSIFICATION_TYPE":"U","NORAD_CAT_ID":56346,"ELEMENT_SET_NO":999,"REV_AT_EPOCH":15816,"BSTAR":1.8161836e-5,"MEAN_MOTION_DOT":1.75e-6,"MEAN_MOTION_DDOT":0}]
